[
  {
    "Location": "A. h. guard",
    "Pincode": 801101,
    "State": "Bihar",
    "District": "Patna"
  },
  {
    "Location": "A.Piplawan",
    "Pincode": 801109,
    "State": "Bihar",
    "District": "Patna"
  },
  {
    "Location": "Achua",
    "Pincode": 801110,
    "State": "Bihar",
    "District": "Patna"
  },
  {
    "Location": "Achuara",
    "Pincode": 803213,
    "State": "Bihar",
    "District": "Patna"
  },
  {
    "Location": "Agwanpur",
    "Pincode": 803214,
    "State": "Bihar",
    "District": "Patna"
  },
  {
    "Location": "Ahiyapur",
    "Pincode": 801108,
    "State": "Bihar",
    "District": "Patna"
  },
  {
    "Location": "Aikhan",
    "Pincode": 801102,
    "State": "Bihar",
    "District": "Patna"
  },
  {
    "Location": "Ajwan",
    "Pincode": 801109,
    "State": "Bihar",
    "District": "Patna"
  },
  {
    "Location": "Akauna",
    "Pincode": 804453,
    "State": "Bihar",
    "District": "Patna"
  },
  {
    "Location": "Akhtiyarpur",
    "Pincode": 801104,
    "State": "Bihar",
    "District": "Patna"
  },
  {
    "Location": "Akilpur",
    "Pincode": 800012,
    "State": "Bihar",
    "District": "Patna"
  },
  {
    "Location": "Alampur Gonpura",
    "Pincode": 801505,
    "State": "Bihar",
    "District": "Patna"
  },
  {
    "Location": "Alawalpur",
    "Pincode": 803203,
    "State": "Bihar",
    "District": "Patna"
  },
  {
    "Location": "Alipur Bihta",
    "Pincode": 803202,
    "State": "Bihar",
    "District": "Patna"
  },
  {
    "Location": "Amarpura",
    "Pincode": 801117,
    "State": "Bihar",
    "District": "Patna"
  },
  {
    "Location": "Amhara",
    "Pincode": 801118,
    "State": "Bihar",
    "District": "Patna"
  },
  {
    "Location": "Anandpur",
    "Pincode": 801103,
    "State": "Bihar",
    "District": "Patna"
  },
  {
    "Location": "Anda",
    "Pincode": 801113,
    "State": "Bihar",
    "District": "Patna"
  },
  {
    "Location": "Andauli",
    "Pincode": 803213,
    "State": "Bihar",
    "District": "Patna"
  },
  {
    "Location": "Anisabad",
    "Pincode": 800002,
    "State": "Bihar",
    "District": "Patna"
  },
  {
    "Location": "Ankuri",
    "Pincode": 801110,
    "State": "Bihar",
    "District": "Patna"
  },
  {
    "Location": "Arai",
    "Pincode": 801304,
    "State": "Bihar",
    "District": "Patna"
  },
  {
    "Location": "Arap",
    "Pincode": 801104,
    "State": "Bihar",
    "District": "Patna"
  },
  {
    "Location": "Ashiananagar",
    "Pincode": 800025,
    "State": "Bihar",
    "District": "Patna"
  },
  {
    "Location": "Ashok Nagar",
    "Pincode": 800020,
    "State": "Bihar",
    "District": "Patna"
  },
  {
    "Location": "Athmalgola",
    "Pincode": 803211,
    "State": "Bihar",
    "District": "Patna"
  },
  {
    "Location": "Atnama",
    "Pincode": 803213,
    "State": "Bihar",
    "District": "Patna"
  },
  {
    "Location": "Aunta",
    "Pincode": 803303,
    "State": "Bihar",
    "District": "Patna"
  },
  {
    "Location": "B.C. road",
    "Pincode": 800001,
    "State": "Bihar",
    "District": "Patna"
  },
  {
    "Location": "B.G. camp/raj bhawan",
    "Pincode": 800022,
    "State": "Bihar",
    "District": "Patna"
  },
  {
    "Location": "B.H.colony",
    "Pincode": 800026,
    "State": "Bihar",
    "District": "Patna"
  },
  {
    "Location": "B.P.s.c.",
    "Pincode": 800001,
    "State": "Bihar",
    "District": "Patna"
  },
  {
    "Location": "B.R. centre",
    "Pincode": 801501,
    "State": "Bihar",
    "District": "Patna"
  },
  {
    "Location": "B.S.e. board",
    "Pincode": 800017,
    "State": "Bihar",
    "District": "Patna"
  },
  {
    "Location": "B.Sikaria",
    "Pincode": 804454,
    "State": "Bihar",
    "District": "Patna"
  },
  {
    "Location": "B.Tarani",
    "Pincode": 801109,
    "State": "Bihar",
    "District": "Patna"
  },
  {
    "Location": "B.V. college",
    "Pincode": 800014,
    "State": "Bihar",
    "District": "Patna"
  },
  {
    "Location": "Badopur",
    "Pincode": 803214,
    "State": "Bihar",
    "District": "Patna"
  },
  {
    "Location": "Bahpura",
    "Pincode": 801103,
    "State": "Bihar",
    "District": "Patna"
  },
  {
    "Location": "Bahrampur",
    "Pincode": 804451,
    "State": "Bihar",
    "District": "Patna"
  },
  {
    "Location": "Bahrawan",
    "Pincode": 803214,
    "State": "Bihar",
    "District": "Patna"
  },
  {
    "Location": "Baikathpur",
    "Pincode": 803202,
    "State": "Bihar",
    "District": "Patna"
  },
  {
    "Location": "Bairia",
    "Pincode": 800007,
    "State": "Bihar",
    "District": "Patna"
  },
  {
    "Location": "Bajitpur",
    "Pincode": 800111,
    "State": "Bihar",
    "District": "Patna"
  },
  {
    "Location": "Bakawa",
    "Pincode": 803303,
    "State": "Bihar",
    "District": "Patna"
  },
  {
    "Location": "Bakhari",
    "Pincode": 804451,
    "State": "Bihar",
    "District": "Patna"
  },
  {
    "Location": "Bakhtiyarpur",
    "Pincode": 803112,
    "State": "Bihar",
    "District": "Patna"
  },
  {
    "Location": "Bakra",
    "Pincode": 803110,
    "State": "Bihar",
    "District": "Patna"
  },
  {
    "Location": "Balua",
    "Pincode": 801113,
    "State": "Bihar",
    "District": "Patna"
  },
  {
    "Location": "Banauli Khurd",
    "Pincode": 801110,
    "State": "Bihar",
    "District": "Patna"
  },
  {
    "Location": "Bank Road",
    "Pincode": 800001,
    "State": "Bihar",
    "District": "Patna"
  },
  {
    "Location": "Bankipore",
    "Pincode": 800004,
    "State": "Bihar",
    "District": "Patna"
  },
  {
    "Location": "Bankipore Macchariyawan",
    "Pincode": 803201,
    "State": "Bihar",
    "District": "Patna"
  },
  {
    "Location": "Bansbigha",
    "Pincode": 804451,
    "State": "Bihar",
    "District": "Patna"
  },
  {
    "Location": "Bara",
    "Pincode": 804454,
    "State": "Bihar",
    "District": "Patna"
  },
  {
    "Location": "Barah",
    "Pincode": 801112,
    "State": "Bihar",
    "District": "Patna"
  },
  {
    "Location": "Barawan",
    "Pincode": 804452,
    "State": "Bihar",
    "District": "Patna"
  },
  {
    "Location": "Barh",
    "Pincode": 803213,
    "State": "Bihar",
    "District": "Patna"
  },
  {
    "Location": "Barh College",
    "Pincode": 803213,
    "State": "Bihar",
    "District": "Patna"
  },
  {
    "Location": "Barh Court",
    "Pincode": 803213,
    "State": "Bihar",
    "District": "Patna"
  },
  {
    "Location": "Barh Rs",
    "Pincode": 803214,
    "State": "Bihar",
    "District": "Patna"
  },
  {
    "Location": "Barhi Bigha",
    "Pincode": 804451,
    "State": "Bihar",
    "District": "Patna"
  },
  {
    "Location": "Barni",
    "Pincode": 804452,
    "State": "Bihar",
    "District": "Patna"
  },
  {
    "Location": "Baruane",
    "Pincode": 803307,
    "State": "Bihar",
    "District": "Patna"
  },
  {
    "Location": "Baruna",
    "Pincode": 803201,
    "State": "Bihar",
    "District": "Patna"
  },
  {
    "Location": "Basuhar",
    "Pincode": 804453,
    "State": "Bihar",
    "District": "Patna"
  },
  {
    "Location": "Bataganj",
    "Pincode": 800018,
    "State": "Bihar",
    "District": "Patna"
  },
  {
    "Location": "Baurhi",
    "Pincode": 804451,
    "State": "Bihar",
    "District": "Patna"
  },
  {
    "Location": "Beapur",
    "Pincode": 801503,
    "State": "Bihar",
    "District": "Patna"
  },
  {
    "Location": "Bedauli",
    "Pincode": 804452,
    "State": "Bihar",
    "District": "Patna"
  },
  {
    "Location": "Begampur",
    "Pincode": 800009,
    "State": "Bihar",
    "District": "Patna"
  },
  {
    "Location": "Belchi",
    "Pincode": 803110,
    "State": "Bihar",
    "District": "Patna"
  },
  {
    "Location": "Belhauri",
    "Pincode": 801102,
    "State": "Bihar",
    "District": "Patna"
  },
  {
    "Location": "Beni Bigha",
    "Pincode": 801104,
    "State": "Bihar",
    "District": "Patna"
  },
  {
    "Location": "Berhana",
    "Pincode": 803213,
    "State": "Bihar",
    "District": "Patna"
  },
  {
    "Location": "Berra",
    "Pincode": 804454,
    "State": "Bihar",
    "District": "Patna"
  },
  {
    "Location": "Berthu",
    "Pincode": 804451,
    "State": "Bihar",
    "District": "Patna"
  },
  {
    "Location": "Beur",
    "Pincode": 800002,
    "State": "Bihar",
    "District": "Patna"
  },
  {
    "Location": "Bhadaur",
    "Pincode": 803307,
    "State": "Bihar",
    "District": "Patna"
  },
  {
    "Location": "Bhadaura",
    "Pincode": 804452,
    "State": "Bihar",
    "District": "Patna"
  },
  {
    "Location": "Bhadsara",
    "Pincode": 801102,
    "State": "Bihar",
    "District": "Patna"
  },
  {
    "Location": "Bhagwanganj",
    "Pincode": 804454,
    "State": "Bihar",
    "District": "Patna"
  },
  {
    "Location": "Bhagwatpur Karmaur",
    "Pincode": 803214,
    "State": "Bihar",
    "District": "Patna"
  },
  {
    "Location": "Bhaiswa",
    "Pincode": 804452,
    "State": "Bihar",
    "District": "Patna"
  },
  {
    "Location": "Bharatpura",
    "Pincode": 801102,
    "State": "Bihar",
    "District": "Patna"
  },
  {
    "Location": "Bhatgaon",
    "Pincode": 803213,
    "State": "Bihar",
    "District": "Patna"
  },
  {
    "Location": "Bhergawan",
    "Pincode": 804451,
    "State": "Bihar",
    "District": "Patna"
  },
  {
    "Location": "Bhojpur",
    "Pincode": 803202,
    "State": "Bihar",
    "District": "Patna"
  },
  {
    "Location": "Bhuapur",
    "Pincode": 803211,
    "State": "Bihar",
    "District": "Patna"
  },
  {
    "Location": "Bihari Bigha",
    "Pincode": 803214,
    "State": "Bihar",
    "District": "Patna"
  },
  {
    "Location": "Bihta",
    "Pincode": 801103,
    "State": "Bihar",
    "District": "Patna"
  },
  {
    "Location": "Bikram",
    "Pincode": 801104,
    "State": "Bihar",
    "District": "Patna"
  },
  {
    "Location": "Bindaul",
    "Pincode": 801112,
    "State": "Bihar",
    "District": "Patna"
  },
  {
    "Location": "Bir",
    "Pincode": 804451,
    "State": "Bihar",
    "District": "Patna"
  },
  {
    "Location": "Birpur",
    "Pincode": 803202,
    "State": "Bihar",
    "District": "Patna"
  },
  {
    "Location": "Bishunpura",
    "Pincode": 800111,
    "State": "Bihar",
    "District": "Patna"
  },
  {
    "Location": "Burhara",
    "Pincode": 803112,
    "State": "Bihar",
    "District": "Patna"
  },
  {
    "Location": "C.D.a",
    "Pincode": 800019,
    "State": "Bihar",
    "District": "Patna"
  },
  {
    "Location": "C.R. building",
    "Pincode": 800001,
    "State": "Bihar",
    "District": "Patna"
  },
  {
    "Location": "Ch.Dariapur",
    "Pincode": 801109,
    "State": "Bihar",
    "District": "Patna"
  },
  {
    "Location": "Chaknawada",
    "Pincode": 803213,
    "State": "Bihar",
    "District": "Patna"
  },
  {
    "Location": "Chaksawar",
    "Pincode": 803211,
    "State": "Bihar",
    "District": "Patna"
  },
  {
    "Location": "Chanda",
    "Pincode": 803112,
    "State": "Bihar",
    "District": "Patna"
  },
  {
    "Location": "Chandhaus",
    "Pincode": 801110,
    "State": "Bihar",
    "District": "Patna"
  },
  {
    "Location": "Chandmari",
    "Pincode": 801503,
    "State": "Bihar",
    "District": "Patna"
  },
  {
    "Location": "Chaughara",
    "Pincode": 800008,
    "State": "Bihar",
    "District": "Patna"
  },
  {
    "Location": "Chesi",
    "Pincode": 801109,
    "State": "Bihar",
    "District": "Patna"
  },
  {
    "Location": "Chhata",
    "Pincode": 804452,
    "State": "Bihar",
    "District": "Patna"
  },
  {
    "Location": "Chiksi",
    "Pincode": 801110,
    "State": "Bihar",
    "District": "Patna"
  },
  {
    "Location": "Chintamanchak",
    "Pincode": 803302,
    "State": "Bihar",
    "District": "Patna"
  },
  {
    "Location": "Chipura Khurd",
    "Pincode": 804453,
    "State": "Bihar",
    "District": "Patna"
  },
  {
    "Location": "Chiraiyatand",
    "Pincode": 800001,
    "State": "Bihar",
    "District": "Patna"
  },
  {
    "Location": "Chiraura",
    "Pincode": 801109,
    "State": "Bihar",
    "District": "Patna"
  },
  {
    "Location": "Chistipur",
    "Pincode": 803202,
    "State": "Bihar",
    "District": "Patna"
  },
  {
    "Location": "Chitragupta Nagar",
    "Pincode": 800020,
    "State": "Bihar",
    "District": "Patna"
  },
  {
    "Location": "Chowk Shikarpur",
    "Pincode": 800008,
    "State": "Bihar",
    "District": "Patna"
  },
  {
    "Location": "D.G.tola",
    "Pincode": 803201,
    "State": "Bihar",
    "District": "Patna"
  },
  {
    "Location": "D.Simri",
    "Pincode": 801103,
    "State": "Bihar",
    "District": "Patna"
  },
  {
    "Location": "Dahia",
    "Pincode": 801110,
    "State": "Bihar",
    "District": "Patna"
  },
  {
    "Location": "Dakshnichak",
    "Pincode": 803211,
    "State": "Bihar",
    "District": "Patna"
  },
  {
    "Location": "Dalip Chak",
    "Pincode": 801503,
    "State": "Bihar",
    "District": "Patna"
  },
  {
    "Location": "Danapur Bazar",
    "Pincode": 801503,
    "State": "Bihar",
    "District": "Patna"
  },
  {
    "Location": "Danapur Cantt",
    "Pincode": 801503,
    "State": "Bihar",
    "District": "Patna"
  },
  {
    "Location": "Danara",
    "Pincode": 801104,
    "State": "Bihar",
    "District": "Patna"
  },
  {
    "Location": "Daniyawan",
    "Pincode": 801304,
    "State": "Bihar",
    "District": "Patna"
  },
  {
    "Location": "Darul Mallick",
    "Pincode": 800001,
    "State": "Bihar",
    "District": "Patna"
  },
  {
    "Location": "Darveshpur",
    "Pincode": 803213,
    "State": "Bihar",
    "District": "Patna"
  },
  {
    "Location": "Datiana",
    "Pincode": 801104,
    "State": "Bihar",
    "District": "Patna"
  },
  {
    "Location": "Daudpur",
    "Pincode": 801502,
    "State": "Bihar",
    "District": "Patna"
  },
  {
    "Location": "Daulatpur",
    "Pincode": 804452,
    "State": "Bihar",
    "District": "Patna"
  },
  {
    "Location": "Dental College",
    "Pincode": 800007,
    "State": "Bihar",
    "District": "Patna"
  },
  {
    "Location": "Deodha",
    "Pincode": 804451,
    "State": "Bihar",
    "District": "Patna"
  },
  {
    "Location": "Dewan",
    "Pincode": 804452,
    "State": "Bihar",
    "District": "Patna"
  },
  {
    "Location": "Dhabhma",
    "Pincode": 803214,
    "State": "Bihar",
    "District": "Patna"
  },
  {
    "Location": "Dhanak Dove",
    "Pincode": 803302,
    "State": "Bihar",
    "District": "Patna"
  },
  {
    "Location": "Dhanarua",
    "Pincode": 804451,
    "State": "Bihar",
    "District": "Patna"
  },
  {
    "Location": "Dhanaut",
    "Pincode": 801506,
    "State": "Bihar",
    "District": "Patna"
  },
  {
    "Location": "Dhelwan",
    "Pincode": 800020,
    "State": "Bihar",
    "District": "Patna"
  },
  {
    "Location": "Dhibra",
    "Pincode": 801505,
    "State": "Bihar",
    "District": "Patna"
  },
  {
    "Location": "Dhobiakalanpur",
    "Pincode": 800111,
    "State": "Bihar",
    "District": "Patna"
  },
  {
    "Location": "Digha",
    "Pincode": 800012,
    "State": "Bihar",
    "District": "Patna"
  },
  {
    "Location": "Dighaghat",
    "Pincode": 800011,
    "State": "Bihar",
    "District": "Patna"
  },
  {
    "Location": "Dihri",
    "Pincode": 804453,
    "State": "Bihar",
    "District": "Patna"
  },
  {
    "Location": "Diwan Mohalla",
    "Pincode": 800008,
    "State": "Bihar",
    "District": "Patna"
  },
  {
    "Location": "Doghara",
    "Pincode": 801112,
    "State": "Bihar",
    "District": "Patna"
  },
  {
    "Location": "Doma",
    "Pincode": 803202,
    "State": "Bihar",
    "District": "Patna"
  },
  {
    "Location": "Dumari",
    "Pincode": 803201,
    "State": "Bihar",
    "District": "Patna"
  },
  {
    "Location": "Ekbalganj Nisarpura",
    "Pincode": 801112,
    "State": "Bihar",
    "District": "Patna"
  },
  {
    "Location": "Ekdanga",
    "Pincode": 803213,
    "State": "Bihar",
    "District": "Patna"
  },
  {
    "Location": "Faridpur",
    "Pincode": 801113,
    "State": "Bihar",
    "District": "Patna"
  },
  {
    "Location": "Fatehpur",
    "Pincode": 803206,
    "State": "Bihar",
    "District": "Patna"
  },
  {
    "Location": "Fatwa",
    "Pincode": 803201,
    "State": "Bihar",
    "District": "Patna"
  },
  {
    "Location": "Fulelpur",
    "Pincode": 803211,
    "State": "Bihar",
    "District": "Patna"
  },
  {
    "Location": "Gangachak",
    "Pincode": 804452,
    "State": "Bihar",
    "District": "Patna"
  },
  {
    "Location": "Ganghara",
    "Pincode": 801507,
    "State": "Bihar",
    "District": "Patna"
  },
  {
    "Location": "Gardanibagh",
    "Pincode": 800001,
    "State": "Bihar",
    "District": "Patna"
  },
  {
    "Location": "Garhochak",
    "Pincode": 803201,
    "State": "Bihar",
    "District": "Patna"
  },
  {
    "Location": "Garihara",
    "Pincode": 804452,
    "State": "Bihar",
    "District": "Patna"
  },
  {
    "Location": "Gauri Pundah",
    "Pincode": 803201,
    "State": "Bihar",
    "District": "Patna"
  },
  {
    "Location": "Ghorahua",
    "Pincode": 804452,
    "State": "Bihar",
    "District": "Patna"
  },
  {
    "Location": "Ghoswari",
    "Pincode": 803112,
    "State": "Bihar",
    "District": "Patna"
  },
  {
    "Location": "Gopalur",
    "Pincode": 803110,
    "State": "Bihar",
    "District": "Patna"
  },
  {
    "Location": "Gorakhari",
    "Pincode": 801104,
    "State": "Bihar",
    "District": "Patna"
  },
  {
    "Location": "Gowasa Shikhpura",
    "Pincode": 803214,
    "State": "Bihar",
    "District": "Patna"
  },
  {
    "Location": "Gulzarbagh",
    "Pincode": 800007,
    "State": "Bihar",
    "District": "Patna"
  },
  {
    "Location": "Gyaspur Mahaji",
    "Pincode": 803202,
    "State": "Bihar",
    "District": "Patna"
  },
  {
    "Location": "Hansadih",
    "Pincode": 804452,
    "State": "Bihar",
    "District": "Patna"
  },
  {
    "Location": "Hathidah",
    "Pincode": 803301,
    "State": "Bihar",
    "District": "Patna"
  },
  {
    "Location": "Hazipur Belaur",
    "Pincode": 803213,
    "State": "Bihar",
    "District": "Patna"
  },
  {
    "Location": "Hazrat Sain",
    "Pincode": 804451,
    "State": "Bihar",
    "District": "Patna"
  },
  {
    "Location": "Hotel Republic",
    "Pincode": 800001,
    "State": "Bihar",
    "District": "Patna"
  },
  {
    "Location": "Hulasi Tola",
    "Pincode": 801108,
    "State": "Bihar",
    "District": "Patna"
  },
  {
    "Location": "Indian Nation",
    "Pincode": 800001,
    "State": "Bihar",
    "District": "Patna"
  },
  {
    "Location": "J.C.road",
    "Pincode": 800004,
    "State": "Bihar",
    "District": "Patna"
  },
  {
    "Location": "Jahankhan Road",
    "Pincode": 801503,
    "State": "Bihar",
    "District": "Patna"
  },
  {
    "Location": "Jaitia",
    "Pincode": 804451,
    "State": "Bihar",
    "District": "Patna"
  },
  {
    "Location": "Jalal Pur nauranga",
    "Pincode": 811302,
    "State": "Bihar",
    "District": "Patna"
  },
  {
    "Location": "Jalalpur",
    "Pincode": 803211,
    "State": "Bihar",
    "District": "Patna"
  },
  {
    "Location": "Jamal Road",
    "Pincode": 800001,
    "State": "Bihar",
    "District": "Patna"
  },
  {
    "Location": "Jamsaut",
    "Pincode": 801503,
    "State": "Bihar",
    "District": "Patna"
  },
  {
    "Location": "Jamui",
    "Pincode": 801102,
    "State": "Bihar",
    "District": "Patna"
  },
  {
    "Location": "Janpur",
    "Pincode": 801110,
    "State": "Bihar",
    "District": "Patna"
  },
  {
    "Location": "Jarkha",
    "Pincode": 801110,
    "State": "Bihar",
    "District": "Patna"
  },
  {
    "Location": "Jat Dumari",
    "Pincode": 804453,
    "State": "Bihar",
    "District": "Patna"
  },
  {
    "Location": "Jivrakhan Tola",
    "Pincode": 801503,
    "State": "Bihar",
    "District": "Patna"
  },
  {
    "Location": "Jodhan Bigha",
    "Pincode": 803110,
    "State": "Bihar",
    "District": "Patna"
  },
  {
    "Location": "K.Chauhatter",
    "Pincode": 801108,
    "State": "Bihar",
    "District": "Patna"
  },
  {
    "Location": "K.Netaual",
    "Pincode": 804452,
    "State": "Bihar",
    "District": "Patna"
  },
  {
    "Location": "K.Sector",
    "Pincode": 800020,
    "State": "Bihar",
    "District": "Patna"
  },
  {
    "Location": "Kab",
    "Pincode": 801104,
    "State": "Bihar",
    "District": "Patna"
  },
  {
    "Location": "Kachi Dargah",
    "Pincode": 803201,
    "State": "Bihar",
    "District": "Patna"
  },
  {
    "Location": "Kadamkuan",
    "Pincode": 800003,
    "State": "Bihar",
    "District": "Patna"
  },
  {
    "Location": "Kala Diara",
    "Pincode": 803202,
    "State": "Bihar",
    "District": "Patna"
  },
  {
    "Location": "Kalyanpur",
    "Pincode": 804453,
    "State": "Bihar",
    "District": "Patna"
  },
  {
    "Location": "Kamla Gopalpur",
    "Pincode": 800111,
    "State": "Bihar",
    "District": "Patna"
  },
  {
    "Location": "Kanchanpur",
    "Pincode": 803201,
    "State": "Bihar",
    "District": "Patna"
  },
  {
    "Location": "Kandap",
    "Pincode": 804453,
    "State": "Bihar",
    "District": "Patna"
  },
  {
    "Location": "Kanhaipur",
    "Pincode": 803221,
    "State": "Bihar",
    "District": "Patna"
  },
  {
    "Location": "Kansari",
    "Pincode": 804451,
    "State": "Bihar",
    "District": "Patna"
  },
  {
    "Location": "Karai",
    "Pincode": 801109,
    "State": "Bihar",
    "District": "Patna"
  },
  {
    "Location": "Karanja",
    "Pincode": 801109,
    "State": "Bihar",
    "District": "Patna"
  },
  {
    "Location": "Karara",
    "Pincode": 803302,
    "State": "Bihar",
    "District": "Patna"
  },
  {
    "Location": "Karauta",
    "Pincode": 803202,
    "State": "Bihar",
    "District": "Patna"
  },
  {
    "Location": "Karjan",
    "Pincode": 803211,
    "State": "Bihar",
    "District": "Patna"
  },
  {
    "Location": "Karkain",
    "Pincode": 811104,
    "State": "Bihar",
    "District": "Patna"
  },
  {
    "Location": "Karnauti",
    "Pincode": 803112,
    "State": "Bihar",
    "District": "Patna"
  },
  {
    "Location": "Katauna",
    "Pincode": 803202,
    "State": "Bihar",
    "District": "Patna"
  },
  {
    "Location": "Katesar",
    "Pincode": 801103,
    "State": "Bihar",
    "District": "Patna"
  },
  {
    "Location": "Katra Bazar",
    "Pincode": 800008,
    "State": "Bihar",
    "District": "Patna"
  },
  {
    "Location": "Kayampur",
    "Pincode": 803202,
    "State": "Bihar",
    "District": "Patna"
  },
  {
    "Location": "Keora",
    "Pincode": 804453,
    "State": "Bihar",
    "District": "Patna"
  },
  {
    "Location": "Keshari Nagar",
    "Pincode": 800024,
    "State": "Bihar",
    "District": "Patna"
  },
  {
    "Location": "Khagaul",
    "Pincode": 801105,
    "State": "Bihar",
    "District": "Patna"
  },
  {
    "Location": "Khagaul Bazar",
    "Pincode": 801105,
    "State": "Bihar",
    "District": "Patna"
  },
  {
    "Location": "Khainia",
    "Pincode": 804452,
    "State": "Bihar",
    "District": "Patna"
  },
  {
    "Location": "Khajurar",
    "Pincode": 803213,
    "State": "Bihar",
    "District": "Patna"
  },
  {
    "Location": "Khajuri",
    "Pincode": 801109,
    "State": "Bihar",
    "District": "Patna"
  },
  {
    "Location": "Khanpura",
    "Pincode": 801110,
    "State": "Bihar",
    "District": "Patna"
  },
  {
    "Location": "Kharauna",
    "Pincode": 804454,
    "State": "Bihar",
    "District": "Patna"
  },
  {
    "Location": "Khushrupur",
    "Pincode": 803202,
    "State": "Bihar",
    "District": "Patna"
  },
  {
    "Location": "Kidwaipuri",
    "Pincode": 800001,
    "State": "Bihar",
    "District": "Patna"
  },
  {
    "Location": "Kohawan",
    "Pincode": 803202,
    "State": "Bihar",
    "District": "Patna"
  },
  {
    "Location": "Kondi",
    "Pincode": 803214,
    "State": "Bihar",
    "District": "Patna"
  },
  {
    "Location": "Korari",
    "Pincode": 803110,
    "State": "Bihar",
    "District": "Patna"
  },
  {
    "Location": "Korawan",
    "Pincode": 801109,
    "State": "Bihar",
    "District": "Patna"
  },
  {
    "Location": "Kosut",
    "Pincode": 804452,
    "State": "Bihar",
    "District": "Patna"
  },
  {
    "Location": "Kothia",
    "Pincode": 800009,
    "State": "Bihar",
    "District": "Patna"
  },
  {
    "Location": "Kumhrar",
    "Pincode": 800026,
    "State": "Bihar",
    "District": "Patna"
  },
  {
    "Location": "Kunjwan",
    "Pincode": 801103,
    "State": "Bihar",
    "District": "Patna"
  },
  {
    "Location": "Kurji Md. pur",
    "Pincode": 801105,
    "State": "Bihar",
    "District": "Patna"
  },
  {
    "Location": "Kurkuri",
    "Pincode": 801110,
    "State": "Bihar",
    "District": "Patna"
  },
  {
    "Location": "Kurthaul",
    "Pincode": 804453,
    "State": "Bihar",
    "District": "Patna"
  },
  {
    "Location": "L.B.s nagar",
    "Pincode": 800023,
    "State": "Bihar",
    "District": "Patna"
  },
  {
    "Location": "L.I.c",
    "Pincode": 800001,
    "State": "Bihar",
    "District": "Patna"
  },
  {
    "Location": "Lahsuna",
    "Pincode": 804452,
    "State": "Bihar",
    "District": "Patna"
  },
  {
    "Location": "Lai",
    "Pincode": 801112,
    "State": "Bihar",
    "District": "Patna"
  },
  {
    "Location": "Lakhana",
    "Pincode": 804453,
    "State": "Bihar",
    "District": "Patna"
  },
  {
    "Location": "Lakhanpar",
    "Pincode": 804453,
    "State": "Bihar",
    "District": "Patna"
  },
  {
    "Location": "Lakhanpura",
    "Pincode": 803202,
    "State": "Bihar",
    "District": "Patna"
  },
  {
    "Location": "Lal Bengwa",
    "Pincode": 801503,
    "State": "Bihar",
    "District": "Patna"
  },
  {
    "Location": "Lanka Kachhuara",
    "Pincode": 804453,
    "State": "Bihar",
    "District": "Patna"
  },
  {
    "Location": "Lemuabad",
    "Pincode": 803221,
    "State": "Bihar",
    "District": "Patna"
  },
  {
    "Location": "Lohia Nagar",
    "Pincode": 800020,
    "State": "Bihar",
    "District": "Patna"
  },
  {
    "Location": "M.Dihuli",
    "Pincode": 801102,
    "State": "Bihar",
    "District": "Patna"
  },
  {
    "Location": "M.Gopalpur",
    "Pincode": 801104,
    "State": "Bihar",
    "District": "Patna"
  },
  {
    "Location": "M.Kachhuara",
    "Pincode": 800016,
    "State": "Bihar",
    "District": "Patna"
  },
  {
    "Location": "Mahendru.Sandapur",
    "Pincode": 800006,
    "State": "Bihar",
    "District": "Patna"
  },
  {
    "Location": "Machharhatta",
    "Pincode": 800008,
    "State": "Bihar",
    "District": "Patna"
  },
  {
    "Location": "Machhuatoli",
    "Pincode": 800004,
    "State": "Bihar",
    "District": "Patna"
  },
  {
    "Location": "Madhopur",
    "Pincode": 801503,
    "State": "Bihar",
    "District": "Patna"
  },
  {
    "Location": "Mahabalipur",
    "Pincode": 801110,
    "State": "Bihar",
    "District": "Patna"
  },
  {
    "Location": "Mahajpura",
    "Pincode": 801104,
    "State": "Bihar",
    "District": "Patna"
  },
  {
    "Location": "Mahammadpur",
    "Pincode": 803213,
    "State": "Bihar",
    "District": "Patna"
  },
  {
    "Location": "Mahavir Asthan",
    "Pincode": 800008,
    "State": "Bihar",
    "District": "Patna"
  },
  {
    "Location": "Mahendru",
    "Pincode": 800006,
    "State": "Bihar",
    "District": "Patna"
  },
  {
    "Location": "Mahkar",
    "Pincode": 803202,
    "State": "Bihar",
    "District": "Patna"
  },
  {
    "Location": "Makhdumpur Digha",
    "Pincode": 800011,
    "State": "Bihar",
    "District": "Patna"
  },
  {
    "Location": "Makhmilpur",
    "Pincode": 801110,
    "State": "Bihar",
    "District": "Patna"
  },
  {
    "Location": "Mallikpur",
    "Pincode": 804451,
    "State": "Bihar",
    "District": "Patna"
  },
  {
    "Location": "Malpur",
    "Pincode": 803301,
    "State": "Bihar",
    "District": "Patna"
  },
  {
    "Location": "Maner",
    "Pincode": 801108,
    "State": "Bihar",
    "District": "Patna"
  },
  {
    "Location": "Mangarpal",
    "Pincode": 801108,
    "State": "Bihar",
    "District": "Patna"
  },
  {
    "Location": "Mangla Devi",
    "Pincode": 800007,
    "State": "Bihar",
    "District": "Patna"
  },
  {
    "Location": "Manjhauli",
    "Pincode": 803202,
    "State": "Bihar",
    "District": "Patna"
  },
  {
    "Location": "Mankipar",
    "Pincode": 804451,
    "State": "Bihar",
    "District": "Patna"
  },
  {
    "Location": "Maranchi",
    "Pincode": 800009,
    "State": "Bihar",
    "District": "Patna"
  },
  {
    "Location": "Marufganj",
    "Pincode": 800008,
    "State": "Bihar",
    "District": "Patna"
  },
  {
    "Location": "Masarhi",
    "Pincode": 803201,
    "State": "Bihar",
    "District": "Patna"
  },
  {
    "Location": "Masathu",
    "Pincode": 803213,
    "State": "Bihar",
    "District": "Patna"
  },
  {
    "Location": "Masaurha",
    "Pincode": 801110,
    "State": "Bihar",
    "District": "Patna"
  },
  {
    "Location": "Mashaurhi",
    "Pincode": 804452,
    "State": "Bihar",
    "District": "Patna"
  },
  {
    "Location": "Mehdawan",
    "Pincode": 801108,
    "State": "Bihar",
    "District": "Patna"
  },
  {
    "Location": "Mekra",
    "Pincode": 803221,
    "State": "Bihar",
    "District": "Patna"
  },
  {
    "Location": "Missi",
    "Pincode": 803110,
    "State": "Bihar",
    "District": "Patna"
  },
  {
    "Location": "Mithapur",
    "Pincode": 800001,
    "State": "Bihar",
    "District": "Patna"
  },
  {
    "Location": "Mittan Chak",
    "Pincode": 804453,
    "State": "Bihar",
    "District": "Patna"
  },
  {
    "Location": "Mobarakpur",
    "Pincode": 803213,
    "State": "Bihar",
    "District": "Patna"
  },
  {
    "Location": "Mohanpur",
    "Pincode": 804453,
    "State": "Bihar",
    "District": "Patna"
  },
  {
    "Location": "Mohiuddinpur",
    "Pincode": 803201,
    "State": "Bihar",
    "District": "Patna"
  },
  {
    "Location": "Mokama",
    "Pincode": 803302,
    "State": "Bihar",
    "District": "Patna"
  },
  {
    "Location": "Mokamachauk",
    "Pincode": 803302,
    "State": "Bihar",
    "District": "Patna"
  },
  {
    "Location": "Mokamaghat",
    "Pincode": 803303,
    "State": "Bihar",
    "District": "Patna"
  },
  {
    "Location": "Mokar",
    "Pincode": 804454,
    "State": "Bihar",
    "District": "Patna"
  },
  {
    "Location": "More",
    "Pincode": 803302,
    "State": "Bihar",
    "District": "Patna"
  },
  {
    "Location": "Mouri",
    "Pincode": 804426,
    "State": "Bihar",
    "District": "Patna"
  },
  {
    "Location": "Mubarakpur",
    "Pincode": 801505,
    "State": "Bihar",
    "District": "Patna"
  },
  {
    "Location": "Murka",
    "Pincode": 801110,
    "State": "Bihar",
    "District": "Patna"
  },
  {
    "Location": "Musepur",
    "Pincode": 801103,
    "State": "Bihar",
    "District": "Patna"
  },
  {
    "Location": "Nadama Tola",
    "Pincode": 803213,
    "State": "Bihar",
    "District": "Patna"
  },
  {
    "Location": "Nadaul",
    "Pincode": 804454,
    "State": "Bihar",
    "District": "Patna"
  },
  {
    "Location": "Nadghat",
    "Pincode": 800007,
    "State": "Bihar",
    "District": "Patna"
  },
  {
    "Location": "Nadpura",
    "Pincode": 804451,
    "State": "Bihar",
    "District": "Patna"
  },
  {
    "Location": "Nadwan",
    "Pincode": 804453,
    "State": "Bihar",
    "District": "Patna"
  },
  {
    "Location": "Nagwan",
    "Pincode": 801109,
    "State": "Bihar",
    "District": "Patna"
  },
  {
    "Location": "Nanauri",
    "Pincode": 804451,
    "State": "Bihar",
    "District": "Patna"
  },
  {
    "Location": "Nandlalabad",
    "Pincode": 803201,
    "State": "Bihar",
    "District": "Patna"
  },
  {
    "Location": "Nanmuhia",
    "Pincode": 800026,
    "State": "Bihar",
    "District": "Patna"
  },
  {
    "Location": "Nasratpur",
    "Pincode": 804451,
    "State": "Bihar",
    "District": "Patna"
  },
  {
    "Location": "Naubatpur",
    "Pincode": 801109,
    "State": "Bihar",
    "District": "Patna"
  },
  {
    "Location": "Navshakti",
    "Pincode": 800001,
    "State": "Bihar",
    "District": "Patna"
  },
  {
    "Location": "Nawasichak",
    "Pincode": 804451,
    "State": "Bihar",
    "District": "Patna"
  },
  {
    "Location": "Naya Panapur",
    "Pincode": 800012,
    "State": "Bihar",
    "District": "Patna"
  },
  {
    "Location": "Naya Tola",
    "Pincode": 800004,
    "State": "Bihar",
    "District": "Patna"
  },
  {
    "Location": "Nayabigha",
    "Pincode": 803211,
    "State": "Bihar",
    "District": "Patna"
  },
  {
    "Location": "Neora",
    "Pincode": 801113,
    "State": "Bihar",
    "District": "Patna"
  },
  {
    "Location": "Netar",
    "Pincode": 803202,
    "State": "Bihar",
    "District": "Patna"
  },
  {
    "Location": "New Jakkanpur",
    "Pincode": 800001,
    "State": "Bihar",
    "District": "Patna"
  },
  {
    "Location": "Nisarpura",
    "Pincode": 804453,
    "State": "Bihar",
    "District": "Patna"
  },
  {
    "Location": "Osmanchak",
    "Pincode": 804452,
    "State": "Bihar",
    "District": "Patna"
  },
  {
    "Location": "P.M.c.h",
    "Pincode": 800004,
    "State": "Bihar",
    "District": "Patna"
  },
  {
    "Location": "P.Painathi",
    "Pincode": 801103,
    "State": "Bihar",
    "District": "Patna"
  },
  {
    "Location": "Pabhera",
    "Pincode": 804451,
    "State": "Bihar",
    "District": "Patna"
  },
  {
    "Location": "Pachhim Darwaza",
    "Pincode": 800008,
    "State": "Bihar",
    "District": "Patna"
  },
  {
    "Location": "Pahari",
    "Pincode": 800007,
    "State": "Bihar",
    "District": "Patna"
  },
  {
    "Location": "Paijuna",
    "Pincode": 803302,
    "State": "Bihar",
    "District": "Patna"
  },
  {
    "Location": "Paimarghat",
    "Pincode": 804453,
    "State": "Bihar",
    "District": "Patna"
  },
  {
    "Location": "Painal",
    "Pincode": 800111,
    "State": "Bihar",
    "District": "Patna"
  },
  {
    "Location": "Paipura Kala",
    "Pincode": 801110,
    "State": "Bihar",
    "District": "Patna"
  },
  {
    "Location": "Pakri",
    "Pincode": 800002,
    "State": "Bihar",
    "District": "Patna"
  },
  {
    "Location": "Paliganj",
    "Pincode": 801110,
    "State": "Bihar",
    "District": "Patna"
  },
  {
    "Location": "Panapur",
    "Pincode": 800012,
    "State": "Bihar",
    "District": "Patna"
  },
  {
    "Location": "Pandarak",
    "Pincode": 803221,
    "State": "Bihar",
    "District": "Patna"
  },
  {
    "Location": "Panditganj",
    "Pincode": 804451,
    "State": "Bihar",
    "District": "Patna"
  },
  {
    "Location": "Parsa",
    "Pincode": 804453,
    "State": "Bihar",
    "District": "Patna"
  },
  {
    "Location": "Parsawan",
    "Pincode": 803214,
    "State": "Bihar",
    "District": "Patna"
  },
  {
    "Location": "Parthu",
    "Pincode": 804453,
    "State": "Bihar",
    "District": "Patna"
  },
  {
    "Location": "Pataria",
    "Pincode": 804454,
    "State": "Bihar",
    "District": "Patna"
  },
  {
    "Location": "Pathrahat",
    "Pincode": 804453,
    "State": "Bihar",
    "District": "Patna"
  },
  {
    "Location": "Patila",
    "Pincode": 801108,
    "State": "Bihar",
    "District": "Patna"
  },
  {
    "Location": "Patliputra",
    "Pincode": 800013,
    "State": "Bihar",
    "District": "Patna"
  },
  {
    "Location": "Patna Aerodrome",
    "Pincode": 800014,
    "State": "Bihar",
    "District": "Patna"
  },
  {
    "Location": "Patna City",
    "Pincode": 800008,
    "State": "Bihar",
    "District": "Patna"
  },
  {
    "Location": "Patna Collectoriate",
    "Pincode": 800001,
    "State": "Bihar",
    "District": "Patna"
  },
  {
    "Location": "Patna High court",
    "Pincode": 800001,
    "State": "Bihar",
    "District": "Patna"
  },
  {
    "Location": "Patna Sectt.",
    "Pincode": 800015,
    "State": "Bihar",
    "District": "Patna"
  },
  {
    "Location": "Patna University",
    "Pincode": 800005,
    "State": "Bihar",
    "District": "Patna"
  },
  {
    "Location": "Patna.",
    "Pincode": 800001,
    "State": "Bihar",
    "District": "Patna"
  },
  {
    "Location": "Patut",
    "Pincode": 801112,
    "State": "Bihar",
    "District": "Patna"
  },
  {
    "Location": "Phulwarisharif",
    "Pincode": 801505,
    "State": "Bihar",
    "District": "Patna"
  },
  {
    "Location": "Pitwans",
    "Pincode": 804452,
    "State": "Bihar",
    "District": "Patna"
  },
  {
    "Location": "Poawan",
    "Pincode": 804452,
    "State": "Bihar",
    "District": "Patna"
  },
  {
    "Location": "Postal Park",
    "Pincode": 800001,
    "State": "Bihar",
    "District": "Patna"
  },
  {
    "Location": "Prahladpur",
    "Pincode": 803303,
    "State": "Bihar",
    "District": "Patna"
  },
  {
    "Location": "Punadih",
    "Pincode": 800009,
    "State": "Bihar",
    "District": "Patna"
  },
  {
    "Location": "Punaichak",
    "Pincode": 800001,
    "State": "Bihar",
    "District": "Patna"
  },
  {
    "Location": "Punpun",
    "Pincode": 804453,
    "State": "Bihar",
    "District": "Patna"
  },
  {
    "Location": "R.B.jaitipur",
    "Pincode": 801109,
    "State": "Bihar",
    "District": "Patna"
  },
  {
    "Location": "R.Block",
    "Pincode": 800001,
    "State": "Bihar",
    "District": "Patna"
  },
  {
    "Location": "R.M.s. colony",
    "Pincode": 800020,
    "State": "Bihar",
    "District": "Patna"
  },
  {
    "Location": "Rahimapur",
    "Pincode": 803211,
    "State": "Bihar",
    "District": "Patna"
  },
  {
    "Location": "Raily",
    "Pincode": 803221,
    "State": "Bihar",
    "District": "Patna"
  },
  {
    "Location": "Rajapur Mainpura",
    "Pincode": 800001,
    "State": "Bihar",
    "District": "Patna"
  },
  {
    "Location": "Rajendra Nagar",
    "Pincode": 800016,
    "State": "Bihar",
    "District": "Patna"
  },
  {
    "Location": "Rajipur",
    "Pincode": 801104,
    "State": "Bihar",
    "District": "Patna"
  },
  {
    "Location": "Ram Nagar",
    "Pincode": 801108,
    "State": "Bihar",
    "District": "Patna"
  },
  {
    "Location": "Ramchaura",
    "Pincode": 803202,
    "State": "Bihar",
    "District": "Patna"
  },
  {
    "Location": "Ramnagar Diara",
    "Pincode": 803112,
    "State": "Bihar",
    "District": "Patna"
  },
  {
    "Location": "Ramnagar Karai kachhar",
    "Pincode": 803211,
    "State": "Bihar",
    "District": "Patna"
  },
  {
    "Location": "Rampur Diara",
    "Pincode": 801108,
    "State": "Bihar",
    "District": "Patna"
  },
  {
    "Location": "Rampur Dumra",
    "Pincode": 803301,
    "State": "Bihar",
    "District": "Patna"
  },
  {
    "Location": "Ranabigha",
    "Pincode": 803214,
    "State": "Bihar",
    "District": "Patna"
  },
  {
    "Location": "Ranipur",
    "Pincode": 801110,
    "State": "Bihar",
    "District": "Patna"
  },
  {
    "Location": "Rastra Nagar rarha",
    "Pincode": 804451,
    "State": "Bihar",
    "District": "Patna"
  },
  {
    "Location": "Rawaich",
    "Pincode": 803112,
    "State": "Bihar",
    "District": "Patna"
  },
  {
    "Location": "Rewan",
    "Pincode": 804454,
    "State": "Bihar",
    "District": "Patna"
  },
  {
    "Location": "Rukunpura",
    "Pincode": 803201,
    "State": "Bihar",
    "District": "Patna"
  },
  {
    "Location": "Rupas",
    "Pincode": 803211,
    "State": "Bihar",
    "District": "Patna"
  },
  {
    "Location": "S.Gopalpur",
    "Pincode": 801109,
    "State": "Bihar",
    "District": "Patna"
  },
  {
    "Location": "Sabalpur",
    "Pincode": 800009,
    "State": "Bihar",
    "District": "Patna"
  },
  {
    "Location": "Sabnima Khurd",
    "Pincode": 803112,
    "State": "Bihar",
    "District": "Patna"
  },
  {
    "Location": "Sadaquat Ashram",
    "Pincode": 800010,
    "State": "Bihar",
    "District": "Patna"
  },
  {
    "Location": "Sadawah",
    "Pincode": 801102,
    "State": "Bihar",
    "District": "Patna"
  },
  {
    "Location": "Sadikpur",
    "Pincode": 801503,
    "State": "Bihar",
    "District": "Patna"
  },
  {
    "Location": "Sadisopur",
    "Pincode": 800111,
    "State": "Bihar",
    "District": "Patna"
  },
  {
    "Location": "Sahar Rampur",
    "Pincode": 801109,
    "State": "Bihar",
    "District": "Patna"
  },
  {
    "Location": "Sahay Nagar",
    "Pincode": 801506,
    "State": "Bihar",
    "District": "Patna"
  },
  {
    "Location": "Sahdeopur Chaturbhujpur",
    "Pincode": 803303,
    "State": "Bihar",
    "District": "Patna"
  },
  {
    "Location": "Sahora",
    "Pincode": 801110,
    "State": "Bihar",
    "District": "Patna"
  },
  {
    "Location": "Sahri",
    "Pincode": 803214,
    "State": "Bihar",
    "District": "Patna"
  },
  {
    "Location": "Saidabah",
    "Pincode": 801104,
    "State": "Bihar",
    "District": "Patna"
  },
  {
    "Location": "Saistapur",
    "Pincode": 803211,
    "State": "Bihar",
    "District": "Patna"
  },
  {
    "Location": "Sakraicha",
    "Pincode": 804453,
    "State": "Bihar",
    "District": "Patna"
  },
  {
    "Location": "Saksohra",
    "Pincode": 803213,
    "State": "Bihar",
    "District": "Patna"
  },
  {
    "Location": "Salimpur",
    "Pincode": 803202,
    "State": "Bihar",
    "District": "Patna"
  },
  {
    "Location": "Samya Kurmichak",
    "Pincode": 803303,
    "State": "Bihar",
    "District": "Patna"
  },
  {
    "Location": "Samyagarh",
    "Pincode": 803303,
    "State": "Bihar",
    "District": "Patna"
  },
  {
    "Location": "Sanda",
    "Pincode": 804452,
    "State": "Bihar",
    "District": "Patna"
  },
  {
    "Location": "Sarai",
    "Pincode": 801113,
    "State": "Bihar",
    "District": "Patna"
  },
  {
    "Location": "Sarasat",
    "Pincode": 801109,
    "State": "Bihar",
    "District": "Patna"
  },
  {
    "Location": "Sarhan",
    "Pincode": 803214,
    "State": "Bihar",
    "District": "Patna"
  },
  {
    "Location": "Sarsi",
    "Pincode": 801110,
    "State": "Bihar",
    "District": "Patna"
  },
  {
    "Location": "Satya Bhaiya",
    "Pincode": 803112,
    "State": "Bihar",
    "District": "Patna"
  },
  {
    "Location": "Seonan",
    "Pincode": 804454,
    "State": "Bihar",
    "District": "Patna"
  },
  {
    "Location": "Shawani",
    "Pincode": 803211,
    "State": "Bihar",
    "District": "Patna"
  },
  {
    "Location": "Sheikhpura",
    "Pincode": 800014,
    "State": "Bihar",
    "District": "Patna"
  },
  {
    "Location": "Sherpur",
    "Pincode": 801503,
    "State": "Bihar",
    "District": "Patna"
  },
  {
    "Location": "Shikarpur",
    "Pincode": 801105,
    "State": "Bihar",
    "District": "Patna"
  },
  {
    "Location": "Shivnar",
    "Pincode": 803302,
    "State": "Bihar",
    "District": "Patna"
  },
  {
    "Location": "Sidhirpur",
    "Pincode": 801110,
    "State": "Bihar",
    "District": "Patna"
  },
  {
    "Location": "Sigaryawn",
    "Pincode": 801304,
    "State": "Bihar",
    "District": "Patna"
  },
  {
    "Location": "Sigori",
    "Pincode": 801110,
    "State": "Bihar",
    "District": "Patna"
  },
  {
    "Location": "Sihi",
    "Pincode": 801102,
    "State": "Bihar",
    "District": "Patna"
  },
  {
    "Location": "Sikaria",
    "Pincode": 801110,
    "State": "Bihar",
    "District": "Patna"
  },
  {
    "Location": "Simhari",
    "Pincode": 804451,
    "State": "Bihar",
    "District": "Patna"
  },
  {
    "Location": "Singhara",
    "Pincode": 801102,
    "State": "Bihar",
    "District": "Patna"
  },
  {
    "Location": "Sirsi",
    "Pincode": 803110,
    "State": "Bihar",
    "District": "Patna"
  },
  {
    "Location": "Sohora",
    "Pincode": 801102,
    "State": "Bihar",
    "District": "Patna"
  },
  {
    "Location": "Sonagopalpur",
    "Pincode": 800007,
    "State": "Bihar",
    "District": "Patna"
  },
  {
    "Location": "Sonmai",
    "Pincode": 804451,
    "State": "Bihar",
    "District": "Patna"
  },
  {
    "Location": "Sorampur",
    "Pincode": 801505,
    "State": "Bihar",
    "District": "Patna"
  },
  {
    "Location": "Sri Krishnapuri",
    "Pincode": 800001,
    "State": "Bihar",
    "District": "Patna"
  },
  {
    "Location": "Sri Madhoji mills",
    "Pincode": 800008,
    "State": "Bihar",
    "District": "Patna"
  },
  {
    "Location": "Srichandpur",
    "Pincode": 800111,
    "State": "Bihar",
    "District": "Patna"
  },
  {
    "Location": "Sripalpur",
    "Pincode": 804453,
    "State": "Bihar",
    "District": "Patna"
  },
  {
    "Location": "Suitha",
    "Pincode": 804453,
    "State": "Bihar",
    "District": "Patna"
  },
  {
    "Location": "Sultanpur",
    "Pincode": 803201,
    "State": "Bihar",
    "District": "Patna"
  },
  {
    "Location": "Surhari",
    "Pincode": 803202,
    "State": "Bihar",
    "District": "Patna"
  },
  {
    "Location": "Tara Nagar",
    "Pincode": 801103,
    "State": "Bihar",
    "District": "Patna"
  },
  {
    "Location": "Tartar",
    "Pincode": 803302,
    "State": "Bihar",
    "District": "Patna"
  },
  {
    "Location": "Telmar",
    "Pincode": 803204,
    "State": "Bihar",
    "District": "Patna"
  },
  {
    "Location": "Tishkhora",
    "Pincode": 800111,
    "State": "Bihar",
    "District": "Patna"
  },
  {
    "Location": "Tola Sohan rai",
    "Pincode": 803112,
    "State": "Bihar",
    "District": "Patna"
  },
  {
    "Location": "Top",
    "Pincode": 801304,
    "State": "Bihar",
    "District": "Patna"
  },
  {
    "Location": "Usfa",
    "Pincode": 803201,
    "State": "Bihar",
    "District": "Patna"
  },
  {
    "Location": "Vidyut Parisad",
    "Pincode": 800021,
    "State": "Bihar",
    "District": "Patna"
  },
  {
    "Location": "Vijaypura",
    "Pincode": 804451,
    "State": "Bihar",
    "District": "Patna"
  },
  {
    "Location": "Wazirpur",
    "Pincode": 801104,
    "State": "Bihar",
    "District": "Patna"
  },
  {
    "Location": "West Lohianagar",
    "Pincode": 800020,
    "State": "Bihar",
    "District": "Patna"
  }
]